IdCompany;Name;Nip;Address;PostCode;City;Country;Email;Phone
1;Yxetgaxckh;9301932502;589-8069 Nam Street;5551RA;Pittsburgh;Panama;magnis.dis.parturient@interdumNunc.org;285-368-359
2;Vvwyegmzea;5441369157;P.O. Box 775, 8088 Quam St.;6336AP;Laughlin;Myanmar;Nam.consequat.dolor@Maecenasiaculis.org;315-206-456
3;Qoejridmdu;8294713354;1053 Natoque Road;4008KS;El Segundo;Montserrat;ridiculus@ipsumnuncid.edu;256-870-501
4;Zeyusjquhb;8760464583;990-1949 Arcu Avenue;2751SV;Peekskill;Hungary;quis.massa@consequatpurus.com;616-593-951
5;Fqamoimtfr;5052329948;P.O. Box 635, 4987 Nec Av.;2904KQ;Moorhead;Azerbaijan;Praesent@Seddictum.edu;637-683-920
6;Eznyurnhhu;2832458045;Ap #926-7857 Arcu St.;1302MS;Manchester;Cyprus;odio.tristique@diamDuis.org;646-134-896
7;Bsxjxmhrdk;1075498052;962-1347 Placerat, Rd.;3426CW;Blacksburg;Pitcairn;tempor.est.ac@interdum.com;781-620-146
8;Iwromenpwv;1553952302;P.O. Box 950, 5573 Risus. Rd.;9096LT;Long Beach;Mauritius;urna.Nunc@justoProin.edu;290-955-001
9;Ywfbijzxfx;9472504700;956-798 Tempor Rd.;3750ZT;Walla Walla;Austria;Donec.felis.orci@amagna.com;773-977-376
10;Oqotfyshxc;1535340370;P.O. Box 271, 344 Mauris St.;8476YM;Highland Park;Germany;eros.turpis@feugiat.ca;635-207-170
11;Bwcmydrygo;4863633803;473-6197 Feugiat Street;8776RK;Visalia;Cuba;posuere.enim@loremtristiquealiquet.ca;085-135-204
12;Moykuivkar;2669730373;1879 Odio. Street;0720OZ;Bellingham;Hong Kong;at.augue@SeddictumProin.com;768-253-081
13;Nwvsqdovjq;6490844157;P.O. Box 606, 7842 In, Ave;1922JA;Stanton;El Salvador;eu@asollicitudin.edu;791-567-615
14;Aveqnieixi;3481868415;Ap #279-4390 Phasellus Rd.;5849BF;Sioux Falls;Cayman Islands;quis.accumsan.convallis@SuspendisseeleifendCras.org;444-600-923
15;Wopbdggoeu;4555703132;843-5327 Id Ave;5959QZ;Jackson;Bhutan;molestie.tellus@magna.org;442-054-289
16;Lpjbgvxuml;8065176922;100-8516 Elit. Road;6362BB;Plymouth;Greenland;ut@urnaNullamlobortis.edu;776-189-976
17;Lemlqxlmkc;8202022065;1132 Sed Street;2129OI;Rancho Cordova;Germany;Nulla.facilisis.Suspendisse@Phasellus.ca;953-007-792
18;Ekizlqvnrb;7530391270;377-7612 Gravida St.;2671MR;Reading;Solomon Islands;mattis.Integer.eu@euultrices.ca;861-165-851
19;Mowmpdujsb;9831803224;269-9597 Purus St.;9784NS;Claremont;Palestinian Territory, Occupied;non.quam.Pellentesque@Donec.com;319-265-348
20;Bmvositrpt;4831821765;2049 Neque. St.;6028TP;Evansville;United Arab Emirates;dapibus.id@pedeac.ca;089-475-202
